SL-3 R/B                
1 13403U 82079B   26037.22831509  .00007242  00000+0  29261-3 0  9992
2 13403  81.1437 230.2157 0024108 273.2267  86.6208 15.24341445372905
SL-14 R/B               
1 13553U 82092B   26037.33992569  .00000786  00000+0  85438-4 0  9994
2 13553  82.5700 170.7126 0021465  48.2715 341.8204 14.86631017324277
SL-3 R/B                
1 13819U 83010B   26036.97666935  .00020080  00000+0  41894-3 0  9990
2 13819  81.1022  41.0956 0017746 152.2133 208.0063 15.45238880353043
SL-3 R/B                
1 14208U 83075B   26037.26239893  .00015697  00000+0  42409-3 0  9997
2 14208  97.6131  40.6749 0021421 347.8077  12.2646 15.37602325325320
COSMOS 1536             
1 14699U 84013A   26036.99848499  .00009353  00000+0  39052-3 0  9993
2 14699  82.5476 139.3348 0015065  38.6998 321.5315 15.23402379267791
SL-14 R/B               
1 14820U 84027B   26037.11155611  .00000576  00000+0  62955-4 0  9993
2 14820  82.5402 274.6355 0019523  78.9578 281.3833 14.85945460242949
SL-8 R/B                
1 15483U 85006B   26037.29441529  .00000355  00000+0  12629-3 0  9999
2 15483  74.0475 318.9174 0019568 242.7173 266.4442 14.37767400149515
SL-12 R/B(2)            
1 15772U 85042D   26037.31390998  .00000134  00000+0  81868-4 0  9993
2 15772  71.1085 154.0152 0035090 178.2608 212.3267 14.21973237109937
SL-14 R/B               
1 15945U 85069B   26037.03857586  .00000669  00000+0  72928-4 0  9994
2 15945  82.5239  54.7024 0017396 299.8834  60.0653 14.86395728168138
SL-16 R/B               
1 16182U 85097B   26036.93848584  .00000060  00000+0  53908-4 0  9997
2 16182  71.0014 207.3948 0009486 296.9006 175.6911 14.16596202 82731
SL-14 R/B               
1 16496U 86006B   26037.15855216  .00000999  00000+0  10343-3 0  9997
2 16496  82.5271 289.4148 0077164  18.3588 342.0385 14.86771380144523
COSMOS 1743             
1 16719U 86034A   26037.15791827  .00041793  00000+0  59208-3 0  9993
2 16719  82.5330 106.8624 0005187  59.3539 300.8226 15.56279843175340
